start=new Date('2021-12-30T00:00:00.000Z').valueOf();
sats=[{"TLE_LINE2":"2 48354  53.0558  35.9408 0001700  78.5936 281.5244 15.06400968 36225","FILE":"3254971","REF_FRAME":"TEME","OBJECT_TYPE":"PAYLOAD","EPOCH":"2021-12-29T09:04:39.986112","GP_ID":"192713850","ECCENTRICITY":"0.00017000","PERIAPSIS":"546.033","ARG_OF_PERICENTER":"78.5936","DECAY_DATE":null,"MEAN_ANOMALY":"281.5244","OBJECT_NAME":"STARLINK-2674","MEAN_MOTION_DDOT":"0.0000000000000","COUNTRY_CODE":"US","ELEMENT_SET_NO":"999","EPHEMERIS_TYPE":"0","MEAN_MOTION":"15.06400968","TIME_SYSTEM":"UTC","MEAN_MOTION_DOT":"0.00002631","NORAD_CAT_ID":"48354","RCS_SIZE":"LARGE","CLASSIFICATION_TYPE":"U","APOAPSIS":"548.388","INCLINATION":"53.0558","SEMIMAJOR_AXIS":"6925.346","BSTAR":"0.00019545000000","CENTER_NAME":"EARTH","PERIOD":"95.592","REV_AT_EPOCH":"3622","MEAN_ELEMENT_THEORY":"SGP4","TLE_LINE1":"1 48354U 21038B   21363.37824058  .00002631  00000-0  19545-3 0  9999","OBJECT_ID":"2021-038B","RA_OF_ASC_NODE":"35.9408","SITE":"AFETR","LAUNCH_DATE":"2021-05-04"},{"TLE_LINE2":"2 48355  53.0583  35.0761 0001096  96.8343 263.2771 15.06391073 36251","FILE":"3255236","OBJECT_TYPE":"PAYLOAD","REF_FRAME":"TEME","ECCENTRICITY":"0.00010960","GP_ID":"192744635","EPOCH":"2021-12-29T13:45:58.420512","PERIAPSIS":"546.482","MEAN_ANOMALY":"263.2771","DECAY_DATE":null,"ARG_OF_PERICENTER":"96.8343","OBJECT_NAME":"STARLINK-2635","COUNTRY_CODE":"US","ELEMENT_SET_NO":"999","MEAN_MOTION_DDOT":"0.0000000000000","NORAD_CAT_ID":"48355","RCS_SIZE":"LARGE","TIME_SYSTEM":"UTC","MEAN_MOTION_DOT":"-0.00004846","MEAN_MOTION":"15.06391073","EPHEMERIS_TYPE":"0","APOAPSIS":"548.000","CLASSIFICATION_TYPE":"U","SEMIMAJOR_AXIS":"6925.376","INCLINATION":"53.0583","BSTAR":"-0.00030673000000","CENTER_NAME":"EARTH","OBJECT_ID":"2021-038C","TLE_LINE1":"1 48355U 21038C   21363.57359283 -.00004846  00000-0 -30673-3 0  9992","MEAN_ELEMENT_THEORY":"SGP4","PERIOD":"95.593","REV_AT_EPOCH":"3625","RA_OF_ASC_NODE":"35.0761","LAUNCH_DATE":"2021-05-04","SITE":"AFETR"},{"SEMIMAJOR_AXIS":"6925.327","INCLINATION":"53.0578","APOAPSIS":"548.178","CLASSIFICATION_TYPE":"U","LAUNCH_DATE":"2021-05-04","SITE":"AFETR","RA_OF_ASC_NODE":"35.9737","OBJECT_ID":"2021-038D","TLE_LINE1":"1 48356U 21038D   21363.37086717  .00002247  00000-0  16969-3 0  9993","MEAN_ELEMENT_THEORY":"SGP4","REV_AT_EPOCH":"3622","PERIOD":"95.592","BSTAR":"0.00016969000000","CENTER_NAME":"EARTH","PERIAPSIS":"546.207","ECCENTRICITY":"0.00014230","EPOCH":"2021-12-29T08:54:02.923488","GP_ID":"192714850","OBJECT_TYPE":"PAYLOAD","REF_FRAME":"TEME","FILE":"3254971","TLE_LINE2":"2 48356  53.0578  35.9737 0001423  96.1602 263.9549 15.06406965 36227","NORAD_CAT_ID":"48356","RCS_SIZE":"LARGE","TIME_SYSTEM":"UTC","MEAN_MOTION_DOT":"0.00002247","MEAN_MOTION":"15.06406965","EPHEMERIS_TYPE":"0","COUNTRY_CODE":"US","ELEMENT_SET_NO":"999","MEAN_MOTION_DDOT":"0.0000000000000","OBJECT_NAME":"STARLINK-2637","MEAN_ANOMALY":"263.9549","DECAY_DATE":null,"ARG_OF_PERICENTER":"96.1602"},{"APOAPSIS":"548.260","CLASSIFICATION_TYPE":"U","SEMIMAJOR_AXIS":"6925.315","INCLINATION":"53.0555","RA_OF_ASC_NODE":"35.9891","LAUNCH_DATE":"2021-05-04","SITE":"AFETR","CENTER_NAME":"EARTH","BSTAR":"0.00078650000000","OBJECT_ID":"2021-038E","TLE_LINE1":"1 48357U 21038E   21363.36718264  .00011456  00000-0  78650-3 0  9999","MEAN_ELEMENT_THEORY":"SGP4","REV_AT_EPOCH":"3622","PERIOD":"95.591","ECCENTRICITY":"0.00015600","GP_ID":"192714598","EPOCH":"2021-12-29T08:48:44.580096","PERIAPSIS":"546.099","FILE":"3254971","TLE_LINE2":"2 48357  53.0555  35.9891 0001560  82.0349 278.0817 15.06411109 36229","OBJECT_TYPE":"PAYLOAD","REF_FRAME":"TEME","ELEMENT_SET_NO":"999","COUNTRY_CODE":"US","MEAN_MOTION_DDOT":"0.0000000000000","RCS_SIZE":"LARGE","NORAD_CAT_ID":"48357","MEAN_MOTION_DOT":"0.00011456","TIME_SYSTEM":"UTC","MEAN_MOTION":"15.06411109","EPHEMERIS_TYPE":"0","MEAN_ANOMALY":"278.0817","DECAY_DATE":null,"ARG_OF_PERICENTER":"82.0349","OBJECT_NAME":"STARLINK-2636"},{"ECCENTRICITY":"0.00012700","EPOCH":"2021-12-29T08:43:25.780512","GP_ID":"192713350","PERIAPSIS":"546.300","TLE_LINE2":"2 48358  53.0544  36.0015 0001270  78.1491 281.9640 15.06411163 36216","FILE":"3254971","OBJECT_TYPE":"PAYLOAD","REF_FRAME":"TEME","ELEMENT_SET_NO":"999","COUNTRY_CODE":"US","MEAN_MOTION_DDOT":"0.0000000000000","RCS_SIZE":"LARGE","NORAD_CAT_ID":"48358","MEAN_MOTION_DOT":"0.00007134","TIME_SYSTEM":"UTC","MEAN_MOTION":"15.06411163","EPHEMERIS_TYPE":"0","MEAN_ANOMALY":"281.9640","DECAY_DATE":null,"ARG_OF_PERICENTER":"78.1491","OBJECT_NAME":"STARLINK-2624","APOAPSIS":"548.059","CLASSIFICATION_TYPE":"U","SEMIMAJOR_AXIS":"6925.314","INCLINATION":"53.0544","RA_OF_ASC_NODE":"36.0015","LAUNCH_DATE":"2021-05-04","SITE":"AFETR","CENTER_NAME":"EARTH","BSTAR":"0.00049719000000","OBJECT_ID":"2021-038F","TLE_LINE1":"1 48358U 21038F   21363.36349283  .00007134  00000-0  49719-3 0  9993","MEAN_ELEMENT_THEORY":"SGP4","REV_AT_EPOCH":"3621","PERIOD":"95.591"},{"TLE_LINE2":"2 48359  53.0560  33.6412 0001367  74.0257 286.0882 15.06400337 36294","FILE":"3255236","REF_FRAME":"TEME","OBJECT_TYPE":"PAYLOAD","EPOCH":"2021-12-29T21:22:26.550048","GP_ID":"192745136","ECCENTRICITY":"0.00013670","PERIAPSIS":"546.266","DECAY_DATE":null,"ARG_OF_PERICENTER":"74.0257","MEAN_ANOMALY":"286.0882","OBJECT_NAME":"STARLINK-2628","MEAN_MOTION_DDOT":"0.0000000000000","COUNTRY_CODE":"US","ELEMENT_SET_NO":"999","MEAN_MOTION_DOT":"0.00002157","TIME_SYSTEM":"UTC","EPHEMERIS_TYPE":"0","MEAN_MOTION":"15.06400337","NORAD_CAT_ID":"48359","RCS_SIZE":"LARGE","CLASSIFICATION_TYPE":"U","APOAPSIS":"548.159","SEMIMAJOR_AXIS":"6925.348","INCLINATION":"53.0560","CENTER_NAME":"EARTH","BSTAR":"0.00016362000000","MEAN_ELEMENT_THEORY":"SGP4","PERIOD":"95.592","REV_AT_EPOCH":"3629","OBJECT_ID":"2021-038G","TLE_LINE1":"1 48359U 21038G   21363.89058507  .00002157  00000-0  16362-3 0  9996","RA_OF_ASC_NODE":"33.6412","LAUNCH_DATE":"2021-05-04","SITE":"AFETR"},{"OBJECT_NAME":"STARLINK-2622","ARG_OF_PERICENTER":"76.9626","DECAY_DATE":null,"MEAN_ANOMALY":"283.1522","MEAN_MOTION":"15.06408205","EPHEMERIS_TYPE":"0","TIME_SYSTEM":"UTC","MEAN_MOTION_DOT":"0.00004101","RCS_SIZE":"LARGE","NORAD_CAT_ID":"48360","MEAN_MOTION_DDOT":"0.0000000000000","COUNTRY_CODE":"US","ELEMENT_SET_NO":"999","REF_FRAME":"TEME","OBJECT_TYPE":"PAYLOAD","FILE":"3255236","TLE_LINE2":"2 48360  53.0571  33.6511 0001428  76.9626 283.1522 15.06408205 36298","PERIAPSIS":"546.199","GP_ID":"192745388","EPOCH":"2021-12-29T21:17:07.760832","ECCENTRICITY":"0.00014280","PERIOD":"95.592","REV_AT_EPOCH":"3629","MEAN_ELEMENT_THEORY":"SGP4","TLE_LINE1":"1 48360U 21038H   21363.88689538  .00004101  00000-0  29401-3 0  9990","OBJECT_ID":"2021-038H","BSTAR":"0.00029401000000","CENTER_NAME":"EARTH","SITE":"AFETR","LAUNCH_DATE":"2021-05-04","RA_OF_ASC_NODE":"33.6511","INCLINATION":"53.0571","SEMIMAJOR_AXIS":"6925.323","CLASSIFICATION_TYPE":"U","APOAPSIS":"548.177"},{"MEAN_ANOMALY":"282.8827","ARG_OF_PERICENTER":"77.2329","DECAY_DATE":null,"OBJECT_NAME":"STARLINK-2591","COUNTRY_CODE":"US","ELEMENT_SET_NO":"999","MEAN_MOTION_DDOT":"0.0000000000000","RCS_SIZE":"LARGE","NORAD_CAT_ID":"48361","EPHEMERIS_TYPE":"0","MEAN_MOTION":"15.06404986","MEAN_MOTION_DOT":"0.00004347","TIME_SYSTEM":"UTC","TLE_LINE2":"2 48361  53.0466  35.7785 0001494  77.2329 282.8827 15.06404986 36224","FILE":"3254971","OBJECT_TYPE":"PAYLOAD","REF_FRAME":"TEME","ECCENTRICITY":"0.00014940","EPOCH":"2021-12-29T10:03:02.743200","GP_ID":"192715099","PERIAPSIS":"546.164","BSTAR":"0.00031052000000","CENTER_NAME":"EARTH","TLE_LINE1":"1 48361U 21038J   21363.41878175  .00004347  00000-0  31052-3 0  9994","OBJECT_ID":"2021-038J","PERIOD":"95.592","REV_AT_EPOCH":"3622","MEAN_ELEMENT_THEORY":"SGP4","RA_OF_ASC_NODE":"35.7785","SITE":"AFETR","LAUNCH_DATE":"2021-05-04","APOAPSIS":"548.233","CLASSIFICATION_TYPE":"U","INCLINATION":"53.0466","SEMIMAJOR_AXIS":"6925.333"},{"RCS_SIZE":"LARGE","NORAD_CAT_ID":"48362","MEAN_MOTION":"15.06404449","EPHEMERIS_TYPE":"0","TIME_SYSTEM":"UTC","MEAN_MOTION_DOT":"0.00007239","ELEMENT_SET_NO":"999","COUNTRY_CODE":"US","MEAN_MOTION_DDOT":"0.0000000000000","OBJECT_NAME":"STARLINK-2578","MEAN_ANOMALY":"302.9719","ARG_OF_PERICENTER":"57.1465","DECAY_DATE":null,"PERIAPSIS":"545.795","ECCENTRICITY":"0.00020280","EPOCH":"2021-12-29T13:49:55.722432","GP_ID":"192743887","OBJECT_TYPE":"PAYLOAD","REF_FRAME":"TEME","FILE":"3255236","TLE_LINE2":"2 48362  53.0617  35.0363 0002028  57.1465 302.9719 15.06404449 36251","SITE":"AFETR","LAUNCH_DATE":"2021-05-04","RA_OF_ASC_NODE":"35.0363","TLE_LINE1":"1 48362U 21038K   21363.57633938  .00007239  00000-0  50435-3 0  9997","OBJECT_ID":"2021-038K","REV_AT_EPOCH":"3625","PERIOD":"95.592","MEAN_ELEMENT_THEORY":"SGP4","BSTAR":"0.00050435000000","CENTER_NAME":"EARTH","INCLINATION":"53.0617","SEMIMAJOR_AXIS":"6925.335","APOAPSIS":"548.604","CLASSIFICATION_TYPE":"U"},{"OBJECT_ID":"2021-038L","TLE_LINE1":"1 48363U 21038L   21363.59433129  .00001442  00000-0  11572-3 0  9999","MEAN_ELEMENT_THEORY":"SGP4","REV_AT_EPOCH":"3632","PERIOD":"95.593","CENTER_NAME":"EARTH","BSTAR":"0.00011572000000","LAUNCH_DATE":"2021-05-04","SITE":"AFETR","RA_OF_ASC_NODE":"29.9637","SEMIMAJOR_AXIS":"6925.376","INCLINATION":"53.0563","APOAPSIS":"548.294","CLASSIFICATION_TYPE":"U","OBJECT_NAME":"STARLINK-2626","MEAN_ANOMALY":"287.1960","DECAY_DATE":null,"ARG_OF_PERICENTER":"72.9196","NORAD_CAT_ID":"48363","RCS_SIZE":"LARGE","TIME_SYSTEM":"UTC","MEAN_MOTION_DOT":"0.00001442","MEAN_MOTION":"15.06391170","EPHEMERIS_TYPE":"0","ELEMENT_SET_NO":"999","COUNTRY_CODE":"US","MEAN_MOTION_DDOT":"0.0000000000000","OBJECT_TYPE":"PAYLOAD","REF_FRAME":"TEME","TLE_LINE2":"2 48363  53.0563  29.9637 0001521  72.9196 287.1960 15.06391170 36327","FILE":"3255236","PERIAPSIS":"546.187","ECCENTRICITY":"0.00015210","GP_ID":"192744636","EPOCH":"2021-12-29T14:15:50.223456"}];
